[{"OBJECT_NAME":"LYNK TOWER 4","OBJECT_ID":"2023-001AB","EPOCH":"2026-03-09T16:15:30.644928","MEAN_MOTION":15.31819885,"ECCENTRICITY":0.00103213,"INCLINATION":97.3324,"RA_OF_ASC_NODE":128.594,"ARG_OF_PERICENTER":112.3386,"MEAN_ANOMALY":247.895,"EPHEMERIS_TYPE":0,"CLASSIFICATION_TYPE":"U","NORAD_CAT_ID":55034,"ELEMENT_SET_NO":999,"REV_AT_EPOCH":17658,"BSTAR":0.00030013829,"MEAN_MOTION_DOT":9.16e-5,"MEAN_MOTION_DDOT":0},{"OBJECT_NAME":"STARLINK-31969","OBJECT_ID":"2024-100E","EPOCH":"2026-03-09T11:16:58.802592","MEAN_MOTION":15.27573262,"ECCENTRICITY":8.466e-5,"INCLINATION":43.0022,"RA_OF_ASC_NODE":123.1512,"ARG_OF_PERICENTER":208.8511,"MEAN_ANOMALY":151.2294,"EPHEMERIS_TYPE":0,"CLASSIFICATION_TYPE":"U","NORAD_CAT_ID":59889,"ELEMENT_SET_NO":999,"REV_AT_EPOCH":10116,"BSTAR":-4.4529052e-5,"MEAN_MOTION_DOT":-1.487e-5,"MEAN_MOTION_DDOT":0}]
